[{"OBJECT_NAME":"STARLINK-5801","OBJECT_ID":"2023-042V","EPOCH":"2026-03-09T00:44:29.371200","MEAN_MOTION":15.02523886,"ECCENTRICITY":0.00011649,"INCLINATION":43.0038,"RA_OF_ASC_NODE":59.4846,"ARG_OF_PERICENTER":252.6166,"MEAN_ANOMALY":107.4549,"EPHEMERIS_TYPE":0,"CLASSIFICATION_TYPE":"U","NORAD_CAT_ID":56005,"ELEMENT_SET_NO":999,"REV_AT_EPOCH":16281,"BSTAR":0.00015614724,"MEAN_MOTION_DOT":1.906e-5,"MEAN_MOTION_DDOT":0},{"OBJECT_NAME":"COSMOS 397 DEB","OBJECT_ID":"1971-015G","EPOCH":"2026-03-09T22:00:10.749312","MEAN_MOTION":13.17918803,"ECCENTRICITY":0.08402741,"INCLINATION":65.8103,"RA_OF_ASC_NODE":287.9763,"ARG_OF_PERICENTER":142.9212,"MEAN_ANOMALY":223.3028,"EPHEMERIS_TYPE":0,"CLASSIFICATION_TYPE":"U","NORAD_CAT_ID":5013,"ELEMENT_SET_NO":999,"REV_AT_EPOCH":59145,"BSTAR":0.001039288,"MEAN_MOTION_DOT":2.64e-5,"MEAN_MOTION_DDOT":0}]
